QIANFAN-65              
1 62795U 25016L   25239.92916525  .00000103  00000+0  14170-3 0  9992
2 62795  88.9790 114.1082 0012451 297.7350  62.2537 13.50965519 32829
QIANFAN-66              
1 62796U 25016M   25239.95791247  .00000096  00000+0  12994-3 0  9991
2 62796  88.9810 114.0544 0013460 292.2684  67.7039 13.50960700 32875
QIANFAN-67              
1 62797U 25016N   25239.96199590  .00000101  00000+0  13833-3 0  9996
2 62797  88.9800 114.0900 0013596 299.9112  60.0688 13.50969363 32848
QIANFAN-68              
1 62798U 25016P   25239.89202925  .00000102  00000+0  13965-3 0  9993
2 62798  88.9803 114.1415 0014185 297.9869  61.9846 13.50966814 32817
QIANFAN-69              
1 62799U 25016Q   25239.89616727  .00000106  00000+0  14567-3 0  9996
2 62799  88.9782 114.0306 0014378 298.9893  60.9816 13.50962333 32856
QIANFAN-70              
1 62800U 25016R   25239.91263880  .00000119  00000+0  16533-3 0  9999
2 62800  88.9803 114.1447 0013754 288.4317  71.5338 13.50966278 32817
QIANFAN-71              
1 62801U 25016S   25239.90860476  .00000117  00000+0  16300-3 0  9993
2 62801  88.9797 114.1312 0014381 302.8560  57.1206 13.50965974 32815
QIANFAN-72              
1 62802U 25016T   25239.90441028  .00000108  00000+0  14908-3 0  9994
2 62802  88.9787 114.1505 0017955 308.7302  51.2244 13.50961359 32807
